     2              NAVIGATION DATA                         RINEX VERSION / TYPE
CCRINEXN V1.6.0 UX  CDDIS               01-AUG-16 15:33     PGM / RUN BY / DATE 
IGS BROADCAST EPHEMERIS FILE                                COMMENT             
    0.4657D-08  0.1490D-07 -0.5960D-07 -0.5960D-07          ION ALPHA           
    0.7782D+05  0.4915D+05 -0.6554D+05 -0.3277D+06          ION BETA            
   -0.186264514923D-08-0.621724893790D-14   233472     1908 DELTA-UTC: A0,A1,T,W
    17                                                      LEAP SECONDS        
                                                            END OF HEADER       
 1 16  7 31  0  0  0.0 0.287103466690D-04 0.125055521494D-11 0.000000000000D+00
    0.290000000000D+02-0.578437500000D+02 0.428232116434D-08-0.197481584163D+01
   -0.318326056004D-05 0.576761679258D-02 0.114701688290D-04 0.515364414215D+04
    0.000000000000D+00 0.119209289551D-06 0.287334118215D+01-0.540167093277D-07
    0.965341452495D+00 0.159656250000D+03 0.508583856468D+00-0.773710784330D-08
    0.533236510503D-09 0.100000000000D+01 0.190800000000D+04 0.000000000000D+00
    0.200000000000D+01 0.000000000000D+00 0.512227416039D-08 0.290000000000D+02
    0.000000000000D+00 0.000000000000D+00 0.000000000000D+00 0.000000000000D+00
 2 16  7 31  0  0  0.0 0.570729840547D-03-0.420641299570D-11 0.000000000000D+00
    0.820000000000D+02-0.411250000000D+02 0.478448480834D-08-0.156715442881D+01
   -0.201724469662D-05 0.158275276190D-01 0.110492110252D-04 0.515361040497D+04
    0.000000000000D+00 0.327825546265D-06 0.282645101504D+01 0.819563865662D-07
    0.944124994436D+00 0.152593750000D+03-0.209786526794D+01-0.790282950192D-08
    0.454304649455D-09 0.100000000000D+01 0.190800000000D+04 0.000000000000D+00
    0.200000000000D+01 0.000000000000D+00-0.204890966415D-07 0.820000000000D+02
    0.000000000000D+00 0.000000000000D+00 0.000000000000D+00 0.000000000000D+00
 3 16  7 31  0  0  0.0-0.770878978074D-04-0.284217094304D-11 0.000000000000D+00
    0.200000000000D+02 0.201562500000D+02 0.501806596276D-08-0.155983438027D+01
    0.981613993645D-06 0.166250742041D-03 0.633485615253D-05 0.515364475822D+04
    0.000000000000D+00-0.614672899246D-07-0.236863790753D+01-0.298023223877D-07
    0.959273122010D+00 0.255031250000D+03-0.105004743460D+01-0.817212608695D-08
    0.302155439558D-09 0.100000000000D+01 0.190800000000D+04 0.000000000000D+00
    0.200000000000D+01 0.000000000000D+00 0.139698386192D-08 0.200000000000D+02
    0.000000000000D+00 0.000000000000D+00 0.000000000000D+00 0.000000000000D+00
 4 16  7 31  0  0  0.0-0.259626656771D-03-0.454747350886D-12 0.000000000000D+00
    0.950000000000D+02 0.612187500000D+02 0.548772858592D-08 0.123614534733D+01
    0.309944152832D-05 0.846050167456D-02 0.184215605259D-05 0.515366235924D+04
    0.000000000000D+00-0.126659870148D-06 0.796089114593D+00-0.167638063431D-07
    0.983166121821D+00 0.356406250000D+03 0.903431546430D+00-0.836356266167D-08
    0.125362364703D-09 0.100000000000D+01 0.190800000000D+04 0.000000000000D+00
    0.280000000000D+01 0.630000000000D+02-0.195577740669D-07 0.950000000000D+02
   -0.718200000000D+04 0.400000000000D+01 0.000000000000D+00 0.000000000000D+00
 5 16  7 31  0  0  0.0-0.101594254374D-03 0.272848410532D-11 0.000000000000D+00
    0.500000000000D+02 0.218437500000D+02 0.544951284098D-08 0.925607529532D+00
    0.138208270073D-05 0.462159060407D-02 0.574812293053D-05 0.515355822754D+04
    0.000000000000D+00 0.100582838059D-06-0.238141041414D+01 0.931322574616D-08
    0.946332293510D+00 0.259031250000D+03 0.466366021491D+00-0.853035508897D-08
    0.202151281825D-09 0.100000000000D+01 0.190800000000D+04 0.000000000000D+00
    0.200000000000D+01 0.000000000000D+00-0.107102096081D-07 0.500000000000D+02
    0.000000000000D+00 0.000000000000D+00 0.000000000000D+00 0.000000000000D+00
 6 16  7 31  0  0  0.0 0.225923955440D-03 0.522959453519D-11 0.000000000000D+00
    0.510000000000D+02-0.494062500000D+02 0.428625002158D-08-0.177893895206D+01
   -0.246241688728D-05 0.291336211376D-03 0.112410634756D-04 0.515374529648D+04
    0.000000000000D+00 0.223517417908D-07 0.286492668216D+01-0.279396772385D-07
    0.965158776451D+00 0.167468750000D+03-0.128573450906D+01-0.774496555778D-08
    0.428589275181D-09 0.100000000000D+01 0.190800000000D+04 0.000000000000D+00
    0.200000000000D+01 0.000000000000D+00 0.419095158577D-08 0.510000000000D+02
    0.000000000000D+00 0.000000000000D+00 0.000000000000D+00 0.000000000000D+00
 7 16  7 31  0  0  0.0 0.438323710114D-03-0.272848410532D-11 0.000000000000D+00
    0.100000000000D+03 0.100906250000D+03 0.397016537332D-08-0.267799666163D+01
    0.512041151524D-05 0.985214929096D-02 0.111386179924D-04 0.515364235878D+04
    0.000000000000D+00-0.242143869400D-07-0.251262077137D+00-0.119209289551D-06
    0.965989909951D+00 0.166500000000D+03-0.265508421485D+01-0.763317509524D-08
   -0.307155651409D-10 0.100000000000D+01 0.190800000000D+04 0.000000000000D+00
    0.200000000000D+01 0.000000000000D+00-0.111758708954D-07 0.100000000000D+03
   -0.718200000000D+04 0.400000000000D+01 0.000000000000D+00 0.000000000000D+00
 8 16  7 31  0  0  0.0-0.447644852102D-04-0.147792889038D-11 0.000000000000D+00
    0.500000000000D+02-0.128531250000D+03 0.443089875901D-08 0.955985965567D+00
   -0.656023621559D-05 0.168217904866D-02 0.452436506748D-05 0.515373144531D+04
    0.000000000000D+00 0.447034835815D-07 0.181238223366D+01-0.465661287308D-07
    0.963723652353D+00 0.293093750000D+03-0.102776983575D+01-0.828784507689D-08
   -0.176078762681D-09 0.100000000000D+01 0.190800000000D+04 0.000000000000D+00
    0.200000000000D+01 0.000000000000D+00 0.512227416039D-08 0.500000000000D+02
    0.000000000000D+00 0.000000000000D+00 0.000000000000D+00 0.000000000000D+00
 9 16  7 31  0  0  0.0 0.177555251867D-03 0.727595761418D-11 0.000000000000D+00
    0.520000000000D+02-0.258750000000D+02 0.483663020745D-08-0.373831086994D-01
   -0.137090682983D-05 0.517599633895D-03 0.828132033348D-05 0.515381116676D+04
    0.000000000000D+00-0.316649675369D-07-0.132942157168D+01-0.353902578354D-07
    0.954343041270D+00 0.216625000000D+03 0.219253791781D+01-0.810748090885D-08
   -0.678599676451D-09 0.100000000000D+01 0.190800000000D+04 0.000000000000D+00
    0.200000000000D+01 0.000000000000D+00 0.139698386192D-08 0.520000000000D+02
    0.000000000000D+00 0.000000000000D+00 0.000000000000D+00 0.000000000000D+00
10 16  7 31  0  0  0.0-0.750953331590D-04-0.659383658785D-11 0.000000000000D+00
    0.820000000000D+02 0.153750000000D+02 0.511342745924D-08 0.202537746060D+01
    0.862404704094D-06 0.164218735881D-02 0.599585473537D-05 0.515367147827D+04
    0.000000000000D+00-0.633299350738D-07-0.237259135147D+01 0.596046447754D-07
    0.959503124917D+00 0.264312500000D+03-0.275241121400D+01-0.822105672427D-08
    0.314655967948D-09 0.100000000000D+01 0.190800000000D+04 0.000000000000D+00
    0.200000000000D+01 0.000000000000D+00 0.232830643654D-08 0.820000000000D+02
    0.000000000000D+00 0.000000000000D+00 0.000000000000D+00 0.000000000000D+00
11 16  7 31  0  0  0.0-0.657656695694D-03-0.125055521494D-11 0.000000000000D+00
    0.560000000000D+02-0.114281250000D+03 0.556844614863D-08-0.256483971706D+01
   -0.591203570366D-05 0.166772140656D-01 0.994652509689D-05 0.515368079948D+04
    0.000000000000D+00 0.217929482460D-06 0.249195330697D+01 0.124797224999D-06
    0.897658448906D+00 0.144687500000D+03 0.154878659848D+01-0.823962853502D-08
    0.290012069915D-09 0.100000000000D+01 0.190800000000D+04 0.000000000000D+00
    0.200000000000D+01 0.000000000000D+00-0.121071934700D-07 0.560000000000D+02
    0.000000000000D+00 0.000000000000D+00 0.000000000000D+00 0.000000000000D+00
12 16  7 31  0  0  0.0 0.386495143175D-03 0.795807864051D-12 0.000000000000D+00
    0.770000000000D+02 0.490937500000D+02 0.390837717745D-08 0.300391441954D+01
    0.254809856415D-05 0.608015037142D-02 0.164844095707D-05 0.515368589020D+04
    0.000000000000D+00 0.521540641785D-07 0.825851016970D+00-0.540167093277D-07
    0.990195734313D+00 0.362187500000D+03 0.784460080345D+00-0.799497623660D-08
    0.225366530993D-09 0.100000000000D+01 0.190800000000D+04 0.000000000000D+00
    0.280000000000D+01 0.000000000000D+00-0.125728547573D-07 0.770000000000D+02
    0.000000000000D+00 0.000000000000D+00 0.000000000000D+00 0.000000000000D+00
13 16  7 31  0  0  0.0-0.345371663570D-04-0.238742359215D-11 0.000000000000D+00
    0.470000000000D+02-0.120625000000D+02 0.435625269191D-08-0.173992402261D+01
   -0.763684511185D-06 0.411592610180D-02 0.894255936146D-05 0.515368388939D+04
    0.000000000000D+00-0.113621354103D-06-0.120768623641D+01 0.137835741043D-06
    0.970744554630D+00 0.210437500000D+03 0.199354104383D+01-0.787461384988D-08
   -0.735744909441D-09 0.100000000000D+01 0.190800000000D+04 0.000000000000D+00
    0.200000000000D+01 0.000000000000D+00-0.111758708954D-07 0.470000000000D+02
    0.000000000000D+00 0.000000000000D+00 0.000000000000D+00 0.000000000000D+00
14 16  7 31  0  0  0.0-0.273440964520D-04-0.193267624127D-11 0.000000000000D+00
    0.320000000000D+02-0.584375000000D+01 0.465590810350D-08-0.213232616120D+00
   -0.271946191788D-06 0.890805758536D-02 0.896118581295D-05 0.515403950691D+04
    0.000000000000D+00-0.260770320892D-07-0.124515032348D+01 0.465661287308D-07
    0.963214981107D+00 0.208312500000D+03-0.195970429433D+01-0.814176814856D-08
   -0.729673266253D-09 0.100000000000D+01 0.190800000000D+04 0.000000000000D+00
    0.200000000000D+01 0.000000000000D+00-0.931322574616D-08 0.320000000000D+02
    0.000000000000D+00 0.000000000000D+00 0.000000000000D+00 0.000000000000D+00
